{
  "type": "FeatureCollection",
  "features": [
    {
      "type": "Feature",
      "properties": {
        "norad_id": 33822,
        "name": "COSMOS 2251 DEB",
        "group": "cosmos-2251-debris",
        "lat": 62.54198688485606,
        "lon": -147.84324548855918,
        "alt_km": 942.7295326484955,
        "timestamp": "2025-12-21T03:56:51.225655+00:00",
        "meta_object_name": "COSMOS 2251 DEB",
        "meta_object_id": "1993-036BP",
        "meta_epoch": "2025-12-20T12:28:38.229024",
        "meta_mean_motion": 14.13104908,
        "meta_eccentricity": 0.01528912,
        "meta_inclination": 74.0675,
        "meta_ra_of_asc_node": 179.947,
        "meta_arg_of_pericenter": 224.3699,
        "meta_mean_anomaly": 165.8667,
        "meta_ephemeris_type": 0,
        "meta_classification_type": "U",
        "meta_norad_cat_id": 33822,
        "meta_element_set_no": 999,
        "meta_rev_at_epoch": 86164,
        "meta_bstar": 0.00089699115,
        "meta_mean_motion_dot": 1.848e-05,
        "meta_mean_motion_ddot": 0,
        "tle_line1": "1 33822U 93036BP  25354.51988691  .00001848  00000+0  89699-3 0  9999",
        "tle_line2": "2 33822  74.0675 179.9470 0152891 224.3699 165.8667 14.13104908861642"
      },
      "geometry": {
        "type": "Point",
        "coordinates": [
          -147.84324548855918,
          62.54198688485606
        ]
      }
    },
    {
      "type": "Feature",
      "properties": {
        "norad_id": 33823,
        "name": "COSMOS 2251 DEB",
        "group": "cosmos-2251-debris",
        "lat": -0.141672088289776,
        "lon": -45.39331727940569,
        "alt_km": 866.0727625008312,
        "timestamp": "2025-12-21T03:56:51.225665+00:00",
        "meta_object_name": "COSMOS 2251 DEB",
        "meta_object_id": "1993-036BQ",
        "meta_epoch": "2025-12-20T09:58:30.172800",
        "meta_mean_motion": 13.98967787,
        "meta_eccentricity": 0.02094049,
        "meta_inclination": 73.8096,
        "meta_ra_of_asc_node": 135.8775,
        "meta_arg_of_pericenter": 259.8051,
        "meta_mean_anomaly": 112.5653,
        "meta_ephemeris_type": 0,
        "meta_classification_type": "U",
        "meta_norad_cat_id": 33823,
        "meta_element_set_no": 999,
        "meta_rev_at_epoch": 85717,
        "meta_bstar": 0.00055908456,
        "meta_mean_motion_dot": 9.47e-06,
        "meta_mean_motion_ddot": 0,
        "tle_line1": "1 33823U 93036BQ  25354.41562700  .00000947  00000+0  55908-3 0  9993",
        "tle_line2": "2 33823  73.8096 135.8775 0209404 259.8051 112.5653 13.98967787857175"
      },
      "geometry": {
        "type": "Point",
        "coordinates": [
          -45.39331727940569,
          -0.141672088289776
        ]
      }
    },
    {
      "type": "Feature",
      "properties": {
        "norad_id": 33825,
        "name": "COSMOS 2251 DEB",
        "group": "cosmos-2251-debris",
        "lat": -0.6554270915901367,
        "lon": -168.40407911199296,
        "alt_km": 718.8594225977149,
        "timestamp": "2025-12-21T03:56:51.225675+00:00",
        "meta_object_name": "COSMOS 2251 DEB",
        "meta_object_id": "1993-036BS",
        "meta_epoch": "2025-12-20T19:47:48.418080",
        "meta_mean_motion": 14.69828604,
        "meta_eccentricity": 0.0084962,
        "meta_inclination": 73.9844,
        "meta_ra_of_asc_node": 12.0678,
        "meta_arg_of_pericenter": 337.2006,
        "meta_mean_anomaly": 207.4684,
        "meta_ephemeris_type": 0,
        "meta_classification_type": "U",
        "meta_norad_cat_id": 33825,
        "meta_element_set_no": 999,
        "meta_rev_at_epoch": 88998,
        "meta_bstar": 0.00053562,
        "meta_mean_motion_dot": 3.348e-05,
        "meta_mean_motion_ddot": 0,
        "tle_line1": "1 33825U 93036BS  25354.82486595  .00003348  00000+0  53562-3 0  9999",
        "tle_line2": "2 33825  73.9844  12.0678 0084962 337.2006 207.4684 14.69828604889983"
      },
      "geometry": {
        "type": "Point",
        "coordinates": [
          -168.40407911199296,
          -0.6554270915901367
        ]
      }
    },
    {
      "type": "Feature",
      "properties": {
        "norad_id": 33826,
        "name": "COSMOS 2251 DEB",
        "group": "cosmos-2251-debris",
        "lat": -59.61042833202508,
        "lon": -116.8061428604148,
        "alt_km": 784.03734138043,
        "timestamp": "2025-12-21T03:56:51.225684+00:00",
        "meta_object_name": "COSMOS 2251 DEB",
        "meta_object_id": "1993-036BT",
        "meta_epoch": "2025-12-20T14:09:39.581280",
        "meta_mean_motion": 14.5175577,
        "meta_eccentricity": 0.0082564,
        "meta_inclination": 74.0644,
        "meta_ra_of_asc_node": 35.117,
        "meta_arg_of_pericenter": 76.8214,
        "meta_mean_anomaly": 45.7262,
        "meta_ephemeris_type": 0,
        "meta_classification_type": "U",
        "meta_norad_cat_id": 33826,
        "meta_element_set_no": 999,
        "meta_rev_at_epoch": 87883,
        "meta_bstar": 0.00036978,
        "meta_mean_motion_dot": 1.525e-05,
        "meta_mean_motion_ddot": 0,
        "tle_line1": "1 33826U 93036BT  25354.59004145  .00001525  00000+0  36978-3 0  9998",
        "tle_line2": "2 33826  74.0644  35.1170 0082564  76.8214  45.7262 14.51755770878831"
      },
      "geometry": {
        "type": "Point",
        "coordinates": [
          -116.8061428604148,
          -59.61042833202508
        ]
      }
    },
    {
      "type": "Feature",
      "properties": {
        "norad_id": 33828,
        "name": "COSMOS 2251 DEB",
        "group": "cosmos-2251-debris",
        "lat": -72.99589336120148,
        "lon": 153.120434571627,
        "alt_km": 731.1076181619728,
        "timestamp": "2025-12-21T03:56:51.225694+00:00",
        "meta_object_name": "COSMOS 2251 DEB",
        "meta_object_id": "1993-036BV",
        "meta_epoch": "2025-12-20T16:57:34.395840",
        "meta_mean_motion": 14.4435401,
        "meta_eccentricity": 0.0029516,
        "meta_inclination": 74.0454,
        "meta_ra_of_asc_node": 223.2753,
        "meta_arg_of_pericenter": 294.981,
        "meta_mean_anomaly": 121.4478,
        "meta_ephemeris_type": 0,
        "meta_classification_type": "U",
        "meta_norad_cat_id": 33828,
        "meta_element_set_no": 999,
        "meta_rev_at_epoch": 88428,
        "meta_bstar": 0.00027245,
        "meta_mean_motion_dot": 9.16e-06,
        "meta_mean_motion_ddot": 0,
        "tle_line1": "1 33828U 93036BV  25354.70664810  .00000916  00000+0  27245-3 0  9994",
        "tle_line2": "2 33828  74.0454 223.2753 0029516 294.9810 121.4478 14.44354010884283"
      },
      "geometry": {
        "type": "Point",
        "coordinates": [
          153.120434571627,
          -72.99589336120148
        ]
      }
    },
    {
      "type": "Feature",
      "properties": {
        "norad_id": 33830,
        "name": "COSMOS 2251 DEB",
        "group": "cosmos-2251-debris",
        "lat": 55.709454178510434,
        "lon": -121.32224609176345,
        "alt_km": 631.5901038296324,
        "timestamp": "2025-12-21T03:56:51.225703+00:00",
        "meta_object_name": "COSMOS 2251 DEB",
        "meta_object_id": "1993-036BX",
        "meta_epoch": "2025-12-20T18:15:51.973344",
        "meta_mean_motion": 14.76977053,
        "meta_eccentricity": 0.0042598,
        "meta_inclination": 74.0311,
        "meta_ra_of_asc_node": 214.6389,
        "meta_arg_of_pericenter": 333.0717,
        "meta_mean_anomaly": 101.375,
        "meta_ephemeris_type": 0,
        "meta_classification_type": "U",
        "meta_norad_cat_id": 33830,
        "meta_element_set_no": 999,
        "meta_rev_at_epoch": 89590,
        "meta_bstar": 0.00043049,
        "meta_mean_motion_dot": 3.044e-05,
        "meta_mean_motion_ddot": 0,
        "tle_line1": "1 33830U 93036BX  25354.76101821  .00003044  00000+0  43049-3 0  9996",
        "tle_line2": "2 33830  74.0311 214.6389 0042598 333.0717 101.3750 14.76977053895907"
      },
      "geometry": {
        "type": "Point",
        "coordinates": [
          -121.32224609176345,
          55.709454178510434
        ]
      }
    },
    {
      "type": "Feature",
      "properties": {
        "norad_id": 33832,
        "name": "COSMOS 2251 DEB",
        "group": "cosmos-2251-debris",
        "lat": -22.30258794165077,
        "lon": -172.8361082796248,
        "alt_km": 702.6910362561484,
        "timestamp": "2025-12-21T03:56:51.225713+00:00",
        "meta_object_name": "COSMOS 2251 DEB",
        "meta_object_id": "1993-036BZ",
        "meta_epoch": "2025-12-20T13:23:52.437984",
        "meta_mean_motion": 14.60728869,
        "meta_eccentricity": 0.0024418,
        "meta_inclination": 74.0526,
        "meta_ra_of_asc_node": 195.056,
        "meta_arg_of_pericenter": 224.6655,
        "meta_mean_anomaly": 165.2826,
        "meta_ephemeris_type": 0,
        "meta_classification_type": "U",
        "meta_norad_cat_id": 33832,
        "meta_element_set_no": 999,
        "meta_rev_at_epoch": 88539,
        "meta_bstar": 0.00077782,
        "meta_mean_motion_dot": 3.78e-05,
        "meta_mean_motion_ddot": 0,
        "tle_line1": "1 33832U 93036BZ  25354.55824581  .00003780  00000+0  77782-3 0  9998",
        "tle_line2": "2 33832  74.0526 195.0560 0024418 224.6655 165.2826 14.60728869885394"
      },
      "geometry": {
        "type": "Point",
        "coordinates": [
          -172.8361082796248,
          -22.30258794165077
        ]
      }
    }
  ]
}